1 00005U 58002B   23305.92295697  .00000177  00000-0  23283-3 0  9998
2 00005  34.2480  30.7547 1843480 139.6316 235.6793 10.85103061339129
1 00011U 59001A   23305.84239525  .00000540  00000-0  28655-3 0  9996
2 00011  32.8663 104.5544 1460793  14.5191 349.3137 11.87363740421351
